{
  "type": "FeatureCollection",
  "features": [
    {
      "type": "Feature",
      "properties": {
        "norad_id": 66575,
        "name": "STARLINK-35810",
        "group": "last-30-days",
        "lat": -11.300551806561884,
        "lon": -74.07158795458511,
        "alt_km": 415.9601081327364,
        "timestamp": "2025-12-17T10:52:53.099507+00:00",
        "meta_object_name": "STARLINK-35810",
        "meta_object_id": "2025-268U",
        "meta_epoch": "2025-12-16T22:00:03.000096",
        "meta_mean_motion": 15.50535732,
        "meta_eccentricity": 0.00015144,
        "meta_inclination": 43.0006,
        "meta_ra_of_asc_node": 96.6856,
        "meta_arg_of_pericenter": 273.8704,
        "meta_mean_anomaly": 163.355,
        "meta_ephemeris_type": 0,
        "meta_classification_type": "U",
        "meta_norad_cat_id": 66575,
        "meta_element_set_no": 999,
        "meta_rev_at_epoch": 533,
        "meta_bstar": 0.00083595893,
        "meta_mean_motion_dot": 0.00048931,
        "meta_mean_motion_ddot": 0,
        "tle_line1": "1 66575U 25268U   25350.91670139  .00048931  00000+0  83596-3 0  9991",
        "tle_line2": "2 66575  43.0006  96.6856 0001514 273.8704 163.3550 15.50535732  5336"
      },
      "geometry": {
        "type": "Point",
        "coordinates": [
          -74.07158795458511,
          -11.300551806561884
        ]
      }
    },
    {
      "type": "Feature",
      "properties": {
        "norad_id": 66576,
        "name": "STARLINK-35814",
        "group": "last-30-days",
        "lat": -12.536706750821734,
        "lon": -72.65403338048728,
        "alt_km": 415.9478322504501,
        "timestamp": "2025-12-17T10:52:53.099517+00:00",
        "meta_object_name": "STARLINK-35814",
        "meta_object_id": "2025-268V",
        "meta_epoch": "2025-12-16T22:00:03.000096",
        "meta_mean_motion": 15.50564389,
        "meta_eccentricity": 0.00016412,
        "meta_inclination": 43.0005,
        "meta_ra_of_asc_node": 96.6805,
        "meta_arg_of_pericenter": 271.8764,
        "meta_mean_anomaly": 167.1667,
        "meta_ephemeris_type": 0,
        "meta_classification_type": "U",
        "meta_norad_cat_id": 66576,
        "meta_element_set_no": 999,
        "meta_rev_at_epoch": 533,
        "meta_bstar": 0.0006766831,
        "meta_mean_motion_dot": 0.00039536,
        "meta_mean_motion_ddot": 0,
        "tle_line1": "1 66576U 25268V   25350.91670139  .00039536  00000+0  67668-3 0  9995",
        "tle_line2": "2 66576  43.0005  96.6805 0001641 271.8764 167.1667 15.50564389  5336"
      },
      "geometry": {
        "type": "Point",
        "coordinates": [
          -72.65403338048728,
          -12.536706750821734
        ]
      }
    },
    {
      "type": "Feature",
      "properties": {
        "norad_id": 66577,
        "name": "STARLINK-35815",
        "group": "last-30-days",
        "lat": -13.919573514316262,
        "lon": -71.04299556423481,
        "alt_km": 416.0667054719106,
        "timestamp": "2025-12-17T10:52:53.099528+00:00",
        "meta_object_name": "STARLINK-35815",
        "meta_object_id": "2025-268W",
        "meta_epoch": "2025-12-16T15:28:09.538176",
        "meta_mean_motion": 15.5058695,
        "meta_eccentricity": 0.00037645,
        "meta_inclination": 43.0044,
        "meta_ra_of_asc_node": 98.2675,
        "meta_arg_of_pericenter": 284.3538,
        "meta_mean_anomaly": 75.6905,
        "meta_ephemeris_type": 0,
        "meta_classification_type": "U",
        "meta_norad_cat_id": 66577,
        "meta_element_set_no": 999,
        "meta_rev_at_epoch": 523,
        "meta_bstar": 0.0010398035,
        "meta_mean_motion_dot": 0.00061165,
        "meta_mean_motion_ddot": 0,
        "tle_line1": "1 66577U 25268W   25350.64455484  .00061165  00000+0  10398-2 0  9990",
        "tle_line2": "2 66577  43.0044  98.2675 0003764 284.3538  75.6905 15.50586950  5234"
      },
      "geometry": {
        "type": "Point",
        "coordinates": [
          -71.04299556423481,
          -13.919573514316262
        ]
      }
    },
    {
      "type": "Feature",
      "properties": {
        "norad_id": 66578,
        "name": "STARLINK-35743",
        "group": "last-30-days",
        "lat": -15.32497121603665,
        "lon": -69.36864370554535,
        "alt_km": 415.6710431292131,
        "timestamp": "2025-12-17T10:52:53.099540+00:00",
        "meta_object_name": "STARLINK-35743",
        "meta_object_id": "2025-268X",
        "meta_epoch": "2025-12-16T15:27:40.171680",
        "meta_mean_motion": 15.50650495,
        "meta_eccentricity": 9.315e-05,
        "meta_inclination": 43.0001,
        "meta_ra_of_asc_node": 98.2641,
        "meta_arg_of_pericenter": 248.4548,
        "meta_mean_anomaly": 111.6213,
        "meta_ephemeris_type": 0,
        "meta_classification_type": "U",
        "meta_norad_cat_id": 66578,
        "meta_element_set_no": 999,
        "meta_rev_at_epoch": 523,
        "meta_bstar": 0.0010172314,
        "meta_mean_motion_dot": 0.00059945,
        "meta_mean_motion_ddot": 0,
        "tle_line1": "1 66578U 25268X   25350.64421495  .00059945  00000+0  10172-2 0  9999",
        "tle_line2": "2 66578  43.0001  98.2641 0000931 248.4548 111.6213 15.50650495  5235"
      },
      "geometry": {
        "type": "Point",
        "coordinates": [
          -69.36864370554535,
          -15.32497121603665
        ]
      }
    },
    {
      "type": "Feature",
      "properties": {
        "norad_id": 66579,
        "name": "STARLINK-35868",
        "group": "last-30-days",
        "lat": -16.562042616774328,
        "lon": -67.86546477291903,
        "alt_km": 416.44096552536575,
        "timestamp": "2025-12-17T10:52:53.099555+00:00",
        "meta_object_name": "STARLINK-35868",
        "meta_object_id": "2025-268Y",
        "meta_epoch": "2025-12-16T15:27:10.423296",
        "meta_mean_motion": 15.50637405,
        "meta_eccentricity": 6.528e-05,
        "meta_inclination": 43,
        "meta_ra_of_asc_node": 98.2605,
        "meta_arg_of_pericenter": 323.6291,
        "meta_mean_anomaly": 36.4525,
        "meta_ephemeris_type": 0,
        "meta_classification_type": "U",
        "meta_norad_cat_id": 66579,
        "meta_element_set_no": 999,
        "meta_rev_at_epoch": 523,
        "meta_bstar": 0.0011153132,
        "meta_mean_motion_dot": 0.00065776,
        "meta_mean_motion_ddot": 0,
        "tle_line1": "1 66579U 25268Y   25350.64387064  .00065776  00000+0  11153-2 0  9992",
        "tle_line2": "2 66579  43.0000  98.2605 0000652 323.6291  36.4525 15.50637405  5232"
      },
      "geometry": {
        "type": "Point",
        "coordinates": [
          -67.86546477291903,
          -16.562042616774328
        ]
      }
    },
    {
      "type": "Feature",
      "properties": {
        "norad_id": 66580,
        "name": "STARLINK-35872",
        "group": "last-30-days",
        "lat": -17.690467341432353,
        "lon": -66.46522743663016,
        "alt_km": 416.12639811508507,
        "timestamp": "2025-12-17T10:52:53.099567+00:00",
        "meta_object_name": "STARLINK-35872",
        "meta_object_id": "2025-268Z",
        "meta_epoch": "2025-12-16T15:26:40.036416",
        "meta_mean_motion": 15.50584522,
        "meta_eccentricity": 0.00020412,
        "meta_inclination": 43.0002,
        "meta_ra_of_asc_node": 98.2574,
        "meta_arg_of_pericenter": 275.5012,
        "meta_mean_anomaly": 84.5615,
        "meta_ephemeris_type": 0,
        "meta_classification_type": "U",
        "meta_norad_cat_id": 66580,
        "meta_element_set_no": 999,
        "meta_rev_at_epoch": 523,
        "meta_bstar": 0.00096666308,
        "meta_mean_motion_dot": 0.00056793,
        "meta_mean_motion_ddot": 0,
        "tle_line1": "1 66580U 25268Z   25350.64351894  .00056793  00000+0  96666-3 0  9998",
        "tle_line2": "2 66580  43.0002  98.2574 0002041 275.5012  84.5615 15.50584522  5236"
      },
      "geometry": {
        "type": "Point",
        "coordinates": [
          -66.46522743663016,
          -17.690467341432353
        ]
      }
    },
    {
      "type": "Feature",
      "properties": {
        "norad_id": 66581,
        "name": "STARLINK-35744",
        "group": "last-30-days",
        "lat": -18.967736272254225,
        "lon": -64.84282755673448,
        "alt_km": 416.017794516506,
        "timestamp": "2025-12-17T10:52:53.099579+00:00",
        "meta_object_name": "STARLINK-35744",
        "meta_object_id": "2025-268AA",
        "meta_epoch": "2025-12-16T15:26:10.599936",
        "meta_mean_motion": 15.50613562,
        "meta_eccentricity": 0.00021018,
        "meta_inclination": 43.001,
        "meta_ra_of_asc_node": 98.255,
        "meta_arg_of_pericenter": 273.5265,
        "meta_mean_anomaly": 86.5355,
        "meta_ephemeris_type": 0,
        "meta_classification_type": "U",
        "meta_norad_cat_id": 66581,
        "meta_element_set_no": 999,
        "meta_rev_at_epoch": 523,
        "meta_bstar": 0.0010897857,
        "meta_mean_motion_dot": 0.00064198,
        "meta_mean_motion_ddot": 0,
        "tle_line1": "1 66581U 25268AA  25350.64317824  .00064198  00000+0  10898-2 0  9994",
        "tle_line2": "2 66581  43.0010  98.2550 0002101 273.5265  86.5355 15.50613562  5235"
      },
      "geometry": {
        "type": "Point",
        "coordinates": [
          -64.84282755673448,
          -18.967736272254225
        ]
      }
    }
  ]
}